{
    "links": {
        "self": "http://www.neowsapp.com/rest/v1/neo/3776850?api_key=iIulBulltgU6a56xZRHN4H3l9WmuAYTsLGpBGhQ2"
    },
    "id": "3776850",
    "neo_reference_id": "3776850",
    "name": "(2017 NO6)",
    "designation": "2017 NO6",
    "nasa_jpl_url": "http://ssd.jpl.nasa.gov/sbdb.cgi?sstr=3776850",
    "absolute_magnitude_h": 23.9,
    "estimated_diameter": {
        "kilometers": {
            "estimated_diameter_min": 0.04411182,
            "estimated_diameter_max": 0.0986370281
        },
        "meters": {
            "estimated_diameter_min": 44.1118199997,
            "estimated_diameter_max": 98.6370281305
        },
        "miles": {
            "estimated_diameter_min": 0.0274098057,
            "estimated_diameter_max": 0.0612901888
        },
        "feet": {
            "estimated_diameter_min": 144.7238235278,
            "estimated_diameter_max": 323.6123073718
        }
    },
    "is_potentially_hazardous_asteroid": false,
    "close_approach_data": [
        {
            "close_approach_date": "2017-06-17",
            "close_approach_date_full": "2017-Jun-17 18:11",
            "epoch_date_close_approach": 1497723060000,
            "relative_velocity": {
                "kilometers_per_second": "7.0712331175",
                "kilometers_per_hour": "25456.4392230781",
                "miles_per_hour": "15817.6413605843"
            },
            "miss_distance": {
                "astronomical": "0.1155818619",
                "lunar": "44.9613442791",
                "kilometers": "17290800.350874153",
                "miles": "10744005.1318951914"
            },
            "orbiting_body": "Earth"
        }
    ],
    "orbital_data": {
        "orbit_id": "6",
        "orbit_determination_date": "2017-09-09 06:17:00",
        "first_observation_date": "2017-07-15",
        "last_observation_date": "2017-07-26",
        "data_arc_in_days": 11,
        "observations_used": 27,
        "orbit_uncertainty": "8",
        "minimum_orbit_intersection": ".0838277",
        "jupiter_tisserand_invariant": "5.025",
        "epoch_osculation": "2457950.5",
        "eccentricity": ".1774587118722061",
        "semi_major_axis": "1.280763294614849",
        "inclination": "9.885215953942161",
        "ascending_node_longitude": "278.7697145083848",
        "orbital_period": "529.4216970703362",
        "perihelion_distance": "1.053480690139295",
        "perihelion_argument": "308.5572664059738",
        "aphelion_distance": "1.508045899090403",
        "perihelion_time": "2457886.618575634821",
        "mean_anomaly": "43.43855361184628",
        "mean_motion": ".679987242668999",
        "equinox": "J2000",
        "orbit_class": {
            "orbit_class_type": "AMO",
            "orbit_class_description": "Near-Earth asteroid orbits similar to that of 1221 Amor",
            "orbit_class_range": "1.017 AU < q (perihelion) < 1.3 AU"
        }
    },
    "is_sentry_object": false
}